[{"OBJECT_NAME":"STARLINK-5006","OBJECT_ID":"2023-014AH","EPOCH":"2026-03-09T11:25:06.686112","MEAN_MOTION":14.98328976,"ECCENTRICITY":0.00031212,"INCLINATION":69.9989,"RA_OF_ASC_NODE":84.8535,"ARG_OF_PERICENTER":271.6156,"MEAN_ANOMALY":88.4645,"EPHEMERIS_TYPE":0,"CLASSIFICATION_TYPE":"U","NORAD_CAT_ID":55422,"ELEMENT_SET_NO":999,"REV_AT_EPOCH":17153,"BSTAR":2.3864353e-5,"MEAN_MOTION_DOT":1.92e-6,"MEAN_MOTION_DDOT":0},{"OBJECT_NAME":"KUIPER-00050","OBJECT_ID":"2025-134L","EPOCH":"2026-03-09T16:37:17.406912","MEAN_MOTION":14.97208204,"ECCENTRICITY":0.00043267,"INCLINATION":51.8888,"RA_OF_ASC_NODE":211.9413,"ARG_OF_PERICENTER":323.7107,"MEAN_ANOMALY":36.3569,"EPHEMERIS_TYPE":0,"CLASSIFICATION_TYPE":"U","NORAD_CAT_ID":64510,"ELEMENT_SET_NO":999,"REV_AT_EPOCH":4037,"BSTAR":0.00054272515,"MEAN_MOTION_DOT":6.094e-5,"MEAN_MOTION_DDOT":0}]
